OBJECTID,StationName,Code,State,City,Address1,StationAliases,lon,lat,Opened,Closed
4,"Aberdeen, MD",ABE,MD,Aberdeen,18 East Bel Air Avenue, ,-76.16326,39.508447,1898,
5,"Absecon, NJ",ABN,NJ,Absecon,Shore Road and Ohio Avenue, ,-74.501475,39.424041,,
25,"Albany, OR",ALY,OR,Albany,110 10th Avenue SW, ,-123.102774,44.630464,1977,
16,"Albany-Rensselaer, NY",ALB,NY,Rensselaer,525 East Street, ,-73.741147,42.641029,1968,
19,"Albion, MI",ALI,MI,Albion,300 North Eaton Street, ,-84.755814,42.247196,1882,
6,"Albuquerque, NM",ABQ,NM,Albuquerque,320 1st Street SW, ,-106.647975,35.082061,,
37,"Aldershot, ON",AST,ON,Aldershot,1199 Waterdown Road, ,-79.855712,43.313413,,
18,"Alderson, WV",ALD,WV,Alderson,1 C&O Plaza on Railroad Avenue, ,-80.644856,37.724277,,
24,"Alexandria, VA",ALX,VA,Alexandria,110 Callahan Drive, ,-77.06233,38.806503,,
17,"Alliance, OH",ALC,OH,Alliance,820 East Main Street, ,-81.092904,40.921275,,
22,"Alpine, TX",ALP,TX,Alpine,102 West Holland Avenue, ,-103.661513,30.357302,,
21,"Alton, IL",ALN,IL,Alton,1 Golf Road, ,-90.157298,38.921007,,
23,"Altoona, PA",ALT,PA,Altoona,1231 11th Avenue, ,-78.40162,40.514475,,
26,"Amsterdam, NY",AMS,NY,Amsterdam,466 West Main Street, ,-74.2195,42.953719,,
27,"Anaheim, CA",ANA,CA,Anaheim,2626 East Katella Avenue, ,-117.877308,33.803803,,
30,"Ann Arbor, MI",ARB,MI,Ann Arbor,325 Depot Street, ,-83.743154,42.287692,,
40,"Anniston, AL",ATN,AL,Anniston,126 West 4th Street, ,-85.832145,33.649112,,
7,"Antioch-Pittsburg, CA",ACA,CA,Antioch,100 I Street,Pittsburg,-121.816024,38.0177,,
9,"Arcadia, MO",ACD,MO,Arcadia,13700 Highway 21, ,-90.624403,37.592161,,
11,"Ardmore, OK",ADM,OK,Ardmore,251 East Main Street, ,-97.12551,34.172465,,
32,"Ardmore, PA",ARD,PA,Ardmore,39 Station Avenue, ,-75.290399,40.008278,,
33,"Arkadelphia, AR",ARK,AR,Arkadelphia,798 South 5th Street, ,-93.053284,34.113919,,
14,"Ashland, KY",AKY,KY,Ashland,99 15th Street, ,-82.639603,38.480875,,
36,"Ashland, VA",ASD,VA,Ashland,112 North Railroad Avenue, ,-77.481304,37.759596,,
41,"Atco, NJ",ATO,NJ,Atco,Cooper Road and Raritan Avenue, ,-74.907893,39.783504,,
39,"Atlanta, GA",ATL,GA,Atlanta,"1688 Peachtree Street, NW",Peachtree,-84.392477,33.799445,,
10,"Atlantic City, NJ",ACY,NJ,Atlantic City,1 Atlantic City Expressway, ,-74.439903,39.362689,,
34,"Auburn, CA",ARN,CA,Auburn,277 Nevada Street, ,-121.083187,38.903638,,
43,"Austin, TX",AUS,TX,Austin,250 North Lamar Boulevard, ,-97.75694,30.269449,,
63,"Bakersfield, CA",BFD,CA,Bakersfield,601 Truxtun Avenue, ,-119.00821,35.37214,,
46,"Baltimore, MD",BAL,MD,Baltimore,1500 North Charles Street,Penn Station,-76.615688,39.307302,,
47,"Bangor, MI",BAM,MI,Bangor,541 Railroad Street, ,-86.111646,42.314519,,
49,"Barstow, CA",BAR,CA,Barstow,685 North First Avenue, ,-117.025435,34.90482,,
95,"Battle Creek, MI",BTL,MI,Battle Creek,119 McCamly Street South, ,-85.187825,42.318453,,
78,"Beaumont, TX",BMT,TX,Beaumont,2555 West Cedar Street, ,-94.127367,30.076458,,
59,"Bellingham, WA",BEL,WA,Bellingham,401 Harris Avenue, ,-122.511255,48.720263,,
74,"Bellows Falls, VT",BLF,VT,Bellows Falls,54 Depot Street, ,-72.444597,43.13654,,
60,"Benson, AZ",BEN,AZ,Benson,105 East 4th Street, ,-110.296904,31.968758,,
73,"Berkeley, CA",BKY,CA,Berkeley,700 University Avenue, ,-122.300707,37.867254,,
61,"Berlin, CT",BER,CT,Berlin,51 Depot Road, ,-72.765274,41.635595,,
82,"Bingen-White Salmon, WA",BNG,WA,Bingen,Highway 14 and Walnut Street,"White Salmon,Hood River,Dalles,The Dalles",-121.46873,45.71502,,
67,"Birmingham, AL",BHM,AL,Birmingham,1801 Morris Avenue, ,-86.807023,33.512937,,
84,"Bloomington-Normal, IL",BNL,IL,Normal,11 Uptown Circle, ,-88.984306,40.50901,,
52,"Boston, MA",BBY,MA,Boston,145 Dartmouth Street,"Boston,Back Bay,westwood",-71.075828,42.347317,,
86,"Boston, MA",BON,MA,Boston,135 Causeway Street,North Station,-71.061122,42.366235,,
87,"Boston, MA",BOS,MA,Boston,2 South Station,South Station,-71.055304,42.352311,,
81,"Branford, CT",BNF,CT,Branford,39 Maple Street, ,-72.81635,41.274677,,
88,"Brattleboro, VT",BRA,VT,Brattleboro,10 Vernon Road, ,-72.556497,42.850849,,
94,"Bridgeport, CT",BRP,CT,Bridgeport,525 Water Street, ,-73.187539,41.178006,,
90,"Brookhaven, MS",BRH,MS,Brookhaven,440 North Railroad Avenue, ,-90.44107,31.582961,,
93,"Browning, MT",BRO,MT,Browning,Heart Butte Road and Depot Road,"glacier,east glacier",-113.013151,48.534067,,
91,"Brunswick, ME",BRK,ME,Brunswick,16 Station Avenue, ,-69.965541,43.911388,,
105,"Bryan, OH",BYN,OH,Bryan,Paige and Lynn Street, ,-84.551799,41.480319,,
65,"Buffalo, NY",BFX,NY,Buffalo,75 Exchange Street,Exchange,-78.873748,42.878449,,
98,"Buffalo, NY",BUF,NY,Depew,55 Dick Road,Depew,-78.726584,42.907017,,
50,"Burbank, CA",BBK,CA,Burbank,201 North Front Street, ,-118.2999,34.171299,,
100,"Burbank, CA",BUR,CA,Burbank,3750 Empire Avenue,Hollywood,-118.353767,34.193072,,
54,"Burke Centre, VA",BCV,VA,Burke,10399 Premier Court, ,-77.29879,38.797271,,
92,"Burlington, IA",BRL,IA,Burlington,300 South Main Street, ,-91.101951,40.805788,,
79,"Burlington, NC",BNC,NC,Burlington,101 North Main Street, ,-79.434531,36.094225,,
96,"Burlington, VT",BTN,VT,Burlington,1 Main Street, ,-73.21927,44.4757,,
104,"BWI Marshall Airport, MD",BWI,MD,Baltimore,7 Amtrak Way,"Baltimore,bwi airport",-76.6943,39.192362,,
143,"Camarillo, CA",CML,CA,Camarillo,30 Lewis Road, ,-119.034114,34.215933,,
106,"Camden, SC",CAM,SC,Camden,1060 West Dekalb Street, ,-80.62519,34.248157,,
115,"Carbondale, IL",CDL,IL,Carbondale,401 South Illinois Avenue, ,-89.216628,37.724235,,
160,"Carlinville, IL",CRV,IL,Carlinville,128 Alton Road, ,-89.889276,39.279295,,
153,"Carpinteria, CA",CPN,CA,Carpinteria,475 Linden Avenue, ,-119.522975,34.39678,,
176,"Cary, NC",CYN,NC,Cary,211 North Academy Street, ,-78.782246,35.788294,,
146,"Castleton, VT",CNV,VT,Castleton,266 Main Street, ,-73.171337,43.613382,,
118,"Centralia, IL",CEN,IL,Centralia,110 South Oak St., ,-89.136118,38.527531,,
163,"Centralia, WA",CTL,WA,Centralia,210 Railroad Avenue, ,-122.953062,46.71747,,
125,"Champaign-Urbana, IL",CHM,IL,Champaign,45 East University Avenue,Urbana,-88.241366,40.115843,,
128,"Charleston, SC",CHS,SC,North Charleston,4565 Gaynor Avenue, ,-79.998048,32.875473,,
129,"Charleston, WV",CHW,WV,Charleston,350 MacCorkle Avenue - Southeast, ,-81.638494,38.346368,,
141,"Charlotte, NC",CLT,NC,Charlotte,1914 North Tryon Street, ,-80.822812,35.241403,,
172,"Charlottesville, VA",CVS,VA,Charlottesville,810 West Main Street, ,-78.491684,38.031484,,
175,"Chatsworth, CA",CWT,CA,Chatsworth,10040 Old Depot Plaza Road, ,-118.599417,34.253205,,
144,"Chemult, OR",CMO,OR,Chemult,Palmer/Kranz Street and Depot Street, ,-121.781594,43.216784,,
156,"Cherry Hill, NJ",CRH,NJ,Cherry Hill,Cornell Avenue & West Marlton Pike, ,-75.041824,39.928946,,
123,"Chicago, IL",CHI,IL,Chicago,255 South Clinton Street,Union Station,-87.641015,41.878992,,
130,"Chico, CA",CIC,CA,Chico,450 Orange Street, ,-121.845861,39.723259,,
131,"Cincinnati, OH",CIN,OH,Cincinnati,1301 Western Avenue,Union Terminal,-84.537061,39.109927,,
132,"Claremont, NH",CLA,NH,Claremont,Plains Road and Maple Avenue, ,-72.377644,43.36833,,
110,"Cleburne, TX",CBR,TX,Cleburne,206 North Border Street, ,-97.382333,32.349743,,
161,"Clemson, SC",CSN,SC,Clemson,1105 Tiger Boulevard, ,-82.832501,34.691115,,
135,"Cleveland, OH",CLE,OH,Cleveland,200 Cleveland Memorial Shoreway, ,-81.696172,41.505787,,
136,"Clifton Forge, VA",CLF,VA,Clifton Forge,307 East Ridgeway Street, ,-79.827363,37.814521,,
138,"Clinton, CT",CLN,CT,Clinton,10 John Street Extension, ,-72.52929,41.280743,,
149,"Coatesville, PA",COT,PA,Coatesville,Third Avenue and Fleetwood Street, ,-75.820929,39.985688,,
145,"Col Allensworth State Park, CA",CNL,CA,Allensworth,4011 Grant Drive,"Allensworth,Colonel Allensworth,cnl",-119.385865,35.864338,,
151,"Colfax, CA",COX,CA,Colfax,99 Railroad Street, ,-120.953075,39.099172,,
133,"Columbia, SC",CLB,SC,Columbia,850 Pulaski Street, ,-81.04049,33.994297,,
111,"Columbus, WI",CBS,WI,Columbus,359 North Ludington Street, ,-89.012609,43.340611,,
150,"Connellsville, PA",COV,PA,Connellsville,North Water Street & West Peach Street, ,-79.592813,40.020282,,
148,"Connersville, IN",COI,IN,Connersville,1012 Eastern Avenue, ,-85.13338,39.645969,,
147,"Corcoran, CA",COC,CA,Corcoran,1099 Otis Avenue, ,-119.55705,36.098516,,
174,"Cornwells Heights, PA",CWH,PA,Cornwells Heights,700 Station Avenue, ,-74.952187,40.071663,,
155,"Crawfordsville, IN",CRF,IN,Crawfordsville,400 North Green Street, ,-86.899187,40.044705,,
158,"Creston, IA",CRN,IA,Creston,116 West Adams Street, ,-94.361617,41.05692,,
159,"Croton-Harmon, NY",CRT,NY,Croton-on-Hudson,4 Veteran's Plaza and 1 Croton Point Avenue, ,-73.882394,41.189903,,
139,"Culpeper, VA",CLP,VA,Culpeper,111 South Commerce Street, ,-77.993421,38.47236,,
167,"Cumberland, MD",CUM,MD,Cumberland,201 East Harrison Street, ,-78.758,39.650628,,
168,"Cut Bank, MT",CUT,MT,Cut Bank,101 BNSF Industrial Site, ,-112.331584,48.638364,,
178,"Dallas, TX",DAL,TX,Dallas,400 South Houston Street,Union Station,-96.807235,32.776094,,
180,"Danville, VA",DAN,VA,Danville,677 Craghead Street, ,-79.383968,36.58409,,
182,"Davis, CA",DAV,CA,Davis,840 Second Street, ,-121.737707,38.543562,,
190,"Dearborn, MI",DER,MI,Dearborn,21201 Michigan Avenue, ,-83.235311,42.307167,,
192,"Deerfield Beach, FL",DFB,FL,Deerfield Beach,1300 West Hillsboro Boulevard, ,-80.122147,26.317069,,
208,"Del Rio, TX",DRT,TX,Del Rio,100 North Main Street, ,-100.902662,29.362202,,
197,"DeLand, FL",DLD,FL,DeLand,2491 Old New York Avenue, ,-81.352477,29.017849,,
196,"Delray Beach, FL",DLB,FL,Delray Beach,345 South Congress Avenue, ,-80.091154,26.454021,,
188,"Deming, NM",DEM,NM,Deming,400 East Railroad Avenue, ,-107.754346,32.27177,,
201,"Denmark, SC",DNK,SC,Denmark,200 West Baruch Street, ,-81.143635,33.326184,,
189,"Denver, CO",DEN,CO,Denver,1701 Wynkoop Street,Union Station,-104.999929,39.752959,,
198,"Detroit Lakes, MN",DLK,MN,Detroit Lakes,116 Pioneer Street, ,-95.845998,46.819692,,
191,"Detroit, MI",DET,MI,Detroit,11 West Baltimore Avenue, ,-83.072397,42.368097,,
214,"Devils Lake, ND",DVL,ND,Devils Lake,Railroad Avenue and Third Street, ,-98.861372,48.110468,,
194,"Dillon, SC",DIL,SC,Dillon,100 North Railroad Avenue, ,-79.372301,34.417647,,
187,"Dodge City, KS",DDG,KS,Dodge City,201 East Wyatt Earp Boulevard, ,-100.016961,37.752306,,
203,"Dover, NH",DOV,NH,Dover,33 Chestnut Street, ,-70.878361,43.197968,,
202,"Dowagiac, MI",DOA,MI,Dowagiac,200 Depot Drive, ,-86.109041,41.980941,,
204,"Downingtown, PA",DOW,PA,Downingtown,159 Viaduct Avenue, ,-75.710775,40.002193,,
206,"Du Quoin, IL",DQN,IL,Du Quoin,20 North Chestnut Street, ,-89.240254,38.012328,,
211,"Dunsmuir, CA",DUN,CA,Dunsmuir,5750 Sacramento Avenue, ,-122.270587,41.211127,,
207,"Durand, MI",DRD,MI,Durand,200 South Railroad Street, ,-83.98232,42.909495,,
200,"Durham, NC",DNC,NC,Durham,601 West Main Street, ,-78.906299,35.997347,,
193,"Durham, NH",DHM,NH,Durham,3 Depot Road, ,-70.936013,43.139328,,
216,"Dwight, IL",DWT,IL,Dwight,401 South Columbia Street, ,-88.430707,41.089854,,
218,"Dyer, IN",DYE,IN,Dyer,913 Sheffield Avenue, ,-87.518076,41.515413,,
313,"East Glacier Park, MT",GPK,MT,East Glacier Park,400 Highway 49 North,"glacier,browning",-113.219523,48.442333,,
456,"East Lansing, MI",LNS,MI,East Lansing,1240 South Harrison Road,Lansing,-84.495962,42.718731,,
220,"Edmonds, WA",EDM,WA,Edmonds,211 Railroad Avenue, ,-122.384141,47.811081,,
221,"Effingham, IL",EFG,IL,Effingham,401 West National Avenue, ,-88.54711,39.117059,,
222,"Egg Harbor City, NJ",EGH,NJ,Egg Harbor City,South Philadelphia Avenue & Atlantic Avenue, ,-74.64802,39.526494,,
227,"El Paso, TX",ELP,TX,El Paso,700 West San Francisco Avenue,Union Depot,-106.495644,31.757346,,
229,"Elizabethtown, PA",ELT,PA,Elizabethtown,50 South Wilson Avenue , ,-76.612234,40.147028,,
225,"Elkhart, IN",EKH,IN,Elkhart,131 Tyler Avenue, ,-85.971848,41.680748,,
226,"Elko, NV",ELK,NV,Elko,1300 Water Street (Train 5), ,-115.75053,40.836483,,
230,"Elyria, OH",ELY,OH,Elyria,410 East River Road, ,-82.096685,41.370033,,
232,"Emeryville, CA",EMY,CA,Emeryville,5885 Horton Street, ,-122.291615,37.840474,,
233,"Ephrata, WA",EPH,WA,Ephrata,90 Alder Street NW, ,-119.549267,47.320948,,
235,"Erie, PA",ERI,PA,Erie,125 West 14th Street, ,-80.082444,42.120847,,
239,"Essex Junction, VT",ESX,VT,Essex Junction,29 Railroad Avenue,Burlington,-73.110277,44.492466,,
237,"Essex, MT",ESM,MT,Essex,290 Izaak Walton Inn Road, ,-113.610942,48.275543,,
242,"Eugene, OR",EUG,OR,Eugene,433 Willamette Street, ,-123.092361,44.055043,,
245,"Everett, WA",EVR,WA,Everett,3201 Smith Avenue, ,-122.197858,47.975401,,
248,"Exeter, NH",EXR,NH,Exeter,60 Lincoln Street, ,-70.9587,42.98102,,
249,"Exton, PA",EXT,PA,Exton,445 Walkertown Road, ,-75.621713,40.019291,,
256,"Fairfield-Vacaville, CA",FFV,CA,Fairfield,4921 Vanden Road,Vacaville,-121.967926,38.285626,,
250,"Fargo, ND",FAR,ND,Fargo,420 4th Street North, ,-96.785372,46.880982,,
251,"Fayetteville, NC",FAY,NC,Fayetteville,472 Hay Street, ,-78.884788,35.054993,,
936,"Ferrisburgh-Vergennes, VT",VRN,VT,Ferrisburgh,49 Park Lane,vergennes,-73.248824,44.180921,,
260,"Flagstaff, AZ",FLG,AZ,Flagstaff,1 East Route 66, ,-111.648871,35.197374,,
261,"Flint, MI",FLN,MI,Flint,1407 South Dort Highway, ,-83.651728,43.015425,,
262,"Florence, SC",FLO,SC,Florence,805 East Day Street, ,-79.757056,34.199157,,
255,"Fort Edward-Glens Falls, NY",FED,NY,Fort Edward,70 East Street,"Ft Edward,Ft. Edward,Edward,Glens Falls, Glenns Falls,Hudson Falls",-73.58055,43.269603,,
278,"Fort Lauderdale, FL",FTL,FL,Fort Lauderdale,200 Southwest 21st Terrace,"Ft Lauderdale,Ft. Lauderdale,Lauderdale",-80.17,26.119256,,
263,"Fort Madison, IA",FMD,IA,Fort Madison,810 10th Street ,"Ft Madison,Ft. Madison,Madison",-91.313529,40.629558,,
264,"Fort Morgan, CO",FMG,CO,Fort Morgan,South Ensign Street and Main Street,"Ft Morgan,Ft. Morgan,Morgan",-103.802818,40.247169,,
281,"Fort Worth, TX",FTW,TX,Fort Worth,1001 Jones Street,"Ft Worth,Ft. Worth,Worth",-97.326673,32.752563,,
267,"Framingham, MA",FRA,MA,Framingham,417 Waverly Street, ,-71.420033,42.275993,,
968,"Fraser-Winter Park, CO",WIP,CO,Fraser,205 Fraser Avenue,Winter Park,-105.817388,39.947566,,
252,"Fredericksburg, VA",FBG,VA,Fredericksburg,425 Princess Anne Street, ,-77.457707,38.29808,,
269,"Freeport, ME",FRE,ME,Freeport,23 Depot Road, ,-70.102358,43.855035,,
265,"Fremont, CA",FMT,CA,Fremont,37260 Fremont Boulevard, ,-122.007496,37.559093,,
266,"Fresno, CA",FNO,CA,Fresno,2650 Tulare Street, ,-119.782926,36.738457,,
282,"Fullerton, CA",FUL,CA,Fullerton,120 East Santa Fe Avenue, ,-117.922849,33.868969,,
280,"Fulton, KY",FTN,KY,Fulton,21 Newton Road, ,-88.888772,36.525704,,
310,"Gainesville, GA",GNS,GA,Gainesville,116 Industrial Boulevard, ,-83.819694,34.288897,,
301,"Gainesville, TX",GLE,TX,Gainesville,605 East California Street, ,-97.140896,33.625159,,
285,"Galesburg, IL",GBB,IL,Galesburg,225 South Seminary Street, ,-90.364106,40.944678,,
304,"Gallup, NM",GLP,NM,Gallup,201 East Highway 66, ,-108.740548,35.529176,,
290,"Garden City, KS",GCK,KS,Garden City,100 North 7th Street, ,-100.873256,37.964365,,
284,"Gastonia, NC",GAS,NC,Gastonia,350 Hancock Street, ,-81.162366,35.269186,,
302,"Gilman, IL",GLM,IL,Gilman,800 US Highway 24 West, ,-87.998055,40.752547,,
296,"Glasgow, MT",GGW,MT,Glasgow,424 1st  Avenue South, ,-106.636188,48.194854,,
291,"Glendale, CA",GDL,CA,Glendale,400 West Cerritos Avenue, ,-118.258868,34.123706,,
303,"Glenview, IL",GLN,IL,Glenview,1116 Depot Street, ,-87.805562,42.075038,,
324,"Glenwood Springs, CO",GSC,CO,Glenwood Springs,413 7th Street, ,-107.323218,39.547903,,
326,"Goleta, CA",GTA,CA,Goleta,25 South La Patera Lane, ,-119.843092,34.437729,,
314,"Granby, CO",GRA,CO,Granby,438 Railroad Avenue, ,-105.935503,40.084188,,
294,"Grand Forks, ND",GFK,ND,Grand Forks,5555 DeMers Avenue, ,-97.110835,47.917522,,
300,"Grand Junction, CO",GJT,CO,Grand Junction,339 South 1st Street, ,-108.569929,39.064375,,
321,"Grand Rapids, MI",GRR,MI,Grand Rapids,440 Century Avenue SW, ,-85.672447,42.955788,,
317,"Green River, UT",GRI,UT,Green River,250 South Broadway, ,-110.165228,38.992039,,
293,"Greenfield, MA",GFD,MA,Greenfield,12 Olive Street, ,-72.600765,42.585458,,
320,"Greensboro, NC",GRO,NC,Greensboro,236 East Washington Street, ,-79.78708,36.069797,,
307,"Greensburg, PA",GNB,PA,Greensburg,Harrison Avenue and Seton Hill Drive, ,-79.546893,40.304986,,
322,"Greenville, SC",GRV,SC,Greenville,1120 West Washington Street, ,-82.413486,34.858256,,
334,"Greenwood, MS",GWD,MS,Greenwood,Carrollton Avenue and East Gibson Street, ,-90.176454,33.517159,,
306,"Grimsby, ON",GMS,ON,Grimsby,99 Ontario Street, ,-79.557945,43.195949,,
332,"Grover Beach, CA",GVB,CA,Grover Beach,180 West Grand Avenue, ,-120.629266,35.12126,,
329,"Guadalupe, CA",GUA,CA,Guadalupe,330 Guadalupe Street,santa maria,-120.57341,34.962927,,
330,"Guilford, CT",GUI,CT,Guilford,325 Old Whitfield Street, ,-72.67361,41.275369,,
338,"Hamlet, NC",HAM,NC,Hamlet,2 Main Street, ,-79.699218,34.883663,,
361,"Hammond, LA",HMD,LA,Hammond,404 N.W. Railroad Avenue, ,-90.462169,30.50718,,
362,"Hammond-Whiting, IN",HMI,IN,Hammond,1135 North Calumet Avenue,Whiting,-87.506511,41.691155,,
375,"Hammonton, NJ",HTN,NJ,Hammonton,Egg Harbor Road & Line Street, ,-74.79934,39.631317,,
364,"Hanford, CA",HNF,CA,Hanford,200 Santa Fe Avenue #A, ,-119.651816,36.326078,,
349,"Harpers Ferry, WV",HFY,WV,Harpers Ferry,Potomac Street & Shenandoah Street, ,-77.731078,39.324452,,
339,"Harrisburg, PA",HAR,PA,Harrisburg,4th and Chestnut Streets, ,-76.878256,40.26205,,
348,"Hartford, CT",HFD,CT,Hartford,One Union Place, ,-72.681314,41.768761,,
340,"Hastings, NE",HAS,NE,Hastings,501 West First Street, ,-98.387534,40.584276,,
344,"Hattiesburg, MS",HBG,MS,Hattiesburg,308 Newman Street, ,-89.286463,31.326921,,
354,"Haverhill, MA",HHL,MA,Haverhill,Washington Street at Railroad Square, ,-71.086375,42.773297,,
341,"Havre, MT",HAV,MT,Havre,235 Main Street, ,-109.678352,48.554465,,
342,"Hayward, CA",HAY,CA,Hayward,22555 Meekland Avenue, ,-122.099277,37.665997,,
343,"Hazlehurst, MS",HAZ,MS,Hazlehurst,North Ragsdale Avenue and East Conway Street, ,-90.394347,31.86132,,
347,"Helper, UT",HER,UT,Helper,1 Depot Street, ,-110.853894,39.684036,,
346,"Hermann, MO",HEM,MO,Hermann,301 Wharf Street, ,-91.432558,38.707283,,
372,"High Point, NC",HPT,NC,High Point,100 West High Avenue, ,-80.006097,35.957128,,
355,"Hinton, WV",HIN,WV,Hinton,100 Second Avenue, ,-80.892232,37.675037,,
359,"Holdrege, NE",HLD,NE,Holdrege,200 East Avenue, ,-99.370077,40.436013,,
368,"Holland, MI",HOM,MI,Holland,171 Lincoln Avenue, ,-86.096553,42.791096,,
367,"Hollywood, FL",HOL,FL,Hollywood,3001 Hollywood Boulevard, ,-80.167884,26.011641,,
360,"Holyoke, MA",HLK,MA,Holyoke,74 Main Street, ,-72.602309,42.204156,,
363,"Homewood, IL",HMW,IL,Homewood,18015 Park Avenue, ,-87.668685,41.562446,,
370,"Hope, AR",HOP,AR,Hope,100 East Division Street, ,-93.592247,33.668913,,
371,"Houston, TX",HOS,TX,Houston,902 Washington Avenue, ,-95.367526,29.767245,,
376,"Hudson, NY",HUD,NY,Hudson,69 South Front Street, ,-73.797729,42.253891,,
350,"Huntingdon, PA",HGD,PA,Huntingdon,Fourth and Allegheny Streets, ,-78.01178,40.483665,,
377,"Huntington, WV",HUN,WV,Huntington,1050 8th Avenue, ,-82.439735,38.41582,,
378,"Hutchinson, KS",HUT,KS,Hutchinson,North Walnut Street & East 3rd Avenue, ,-97.931522,38.055712,,
382,"Independence, MO",IDP,MO,Independence,600 South Grand Avenue, ,-94.429711,39.086917,,
384,"Indianapolis, IN",IND,IN,Indianapolis,350 South Illinois Street, ,-86.160423,39.761984,,
385,"Irvine, CA",IRV,CA,Irvine,15215 Barranca Parkway, ,-117.733695,33.656771,,
397,"Jackson, MI",JXN,MI,Jackson,501 East Michigan Avenue, ,-84.39967,42.248113,,
386,"Jackson, MS",JAN,MS,Jackson,300 West Capitol Street, ,-90.190936,32.300808,,
387,"Jacksonville, FL",JAX,FL,Jacksonville,3570 Clifford Lane, ,-81.723893,30.365601,,
388,"Jefferson City, MO",JEF,MO,Jefferson City,101 Jefferson Street, ,-92.169906,38.57887,,
393,"Jesup, GA",JSP,GA,Jesup,176 Northwest Broad Street, ,-81.882173,31.605589,,
394,"Johnstown, PA",JST,PA,Johnstown,47 Walnut Street, ,-78.921996,40.329689,,
392,"Joliet, IL",JOL,IL,Joliet,90 East Jefferson Street, ,-88.078731,41.524647,,
398,"Kalamazoo, MI",KAL,MI,Kalamazoo,459 North Burdick Street, ,-85.584018,42.295255,,
411,"Kankakee, IL",KKI,IL,Kankakee,199 South East Avenue, ,-87.86543,41.119259,,
399,"Kannapolis, NC",KAN,NC,Kannapolis,201 South Main Street, ,-80.624928,35.496172,,
400,"Kansas City, MO",KCY,MO,Kansas City,30 West Pershing Road,Union Station,-94.585129,39.084576,,
402,"Kelso-Longview, WA",KEL,WA,Kelso,501 South First Avenue,Longview,-122.913016,46.142264,,
401,"Kewanee, IL",KEE,IL,Kewanee,210 West Third Street, ,-89.927544,41.245765,,
414,"Kingman, AZ",KNG,AZ,Kingman,402 Andy Devine, ,-114.052816,35.188279,,
409,"Kingston, RI",KIN,RI,West Kingston,1 Railroad Avenue, ,-71.560597,41.483959,,
417,"Kingstree, SC",KTR,SC,Kingstree,101 East Main St., ,-79.829026,33.663882,,
419,"Kirkwood, MO",KWD,MO,Kirkwood,110 West Argonne Drive, ,-90.406761,38.581067,,
410,"Kissimmee, FL",KIS,FL,Kissimmee,111 East Dakin Avenue, ,-81.404234,28.293835,,
403,"Klamath Falls, OR",KFS,OR,Klamath Falls,1600 Oak Avenue, ,-121.771952,42.225509,,
472,"La Crosse, WI",LSE,WI,La Crosse,601 St. Andrew Street, ,-91.247298,43.833155,,
423,"La Grange, IL",LAG,IL,La Grange,25 West Burlington Avenue, ,-87.871545,41.815634,,
424,"La Junta, CO",LAJ,CO,La Junta,1 West First Street, ,-103.543576,37.988249,,
427,"La Plata, MO",LAP,MO,La Plata,535 North Owensby Street, ,-92.493384,40.02922,,
422,"Lafayette, IN",LAF,IN,Lafayette,200 North Second Street, ,-86.895901,40.419347,,
446,"Lafayette, LA",LFT,LA,Lafayette,100 Lee Avenue, ,-92.014519,30.226548,,
433,"Lake Charles, LA",LCH,LA,Lake Charles,100 Ryan Street, ,-93.217037,30.238126,,
425,"Lakeland, FL",LAK,FL,Lakeland,600 East  Main Street, ,-81.951874,28.045603,,
450,"Lakeland, FL",LKL,FL,Lakeland,600 East Main Street, ,-81.951874,28.045603,,
452,"Lamar, CO",LMR,CO,Lamar,109 E Beech Street, ,-102.618574,38.089623,,
453,"Lamy, NM",LMY,NM,Lamy,152 Old Lamy Trail, ,-105.879968,35.480973,,
454,"Lancaster, PA",LNC,PA,Lancaster,53 McGovern Avenue, ,-76.307714,40.054181,,
464,"Lapeer, MI",LPE,MI,Lapeer,73 Howard Street, ,-83.306154,43.04952,,
473,"Las Vegas, NM",LSV,NM,Las Vegas,500 Railroad Avenue at Lincoln, ,-105.212779,35.593432,,
476,"Lathrop-Manteca, CA",LTM,CA,Manteca,17800 Shideler Parkway,Manteca,-121.263658,37.79836,,
420,"Latrobe, PA",LAB,PA,Latrobe,329 McKinley Avenue, ,-79.385083,40.317405,,
430,"Laurel, MS",LAU,MS,Laurel,230 North Maple Street, ,-89.127933,31.692168,,
468,"Lawrence, KS",LRC,KS,Lawrence,413 East 7th Street, ,-95.230539,38.971166,,
486,"Leavenworth, WA",LWA,WA,Leavenworth,11645 North Road , ,-120.643965,47.606493,,
441,"Lee's Summit, MO",LEE,MO,Lee's Summit,217 SW Main Street, ,-94.377972,38.912623,,
444,"Lewistown, PA",LEW,PA,Lewistown,150 Helen Street, ,-77.580047,40.588309,,
445,"Lexington Barbeque Festival, NC",LEX,NC,Lexington,29 South Railroad Street, ,-80.251565,35.820856,,
448,"Libby, MT",LIB,MT,Libby,100 Mineral Avenue, ,-115.54889,48.394842,,
434,"Lincoln, IL",LCN,IL,Lincoln,103 North Chicago Street, ,-89.363051,40.148199,,
455,"Lincoln, NE",LNK,NE,Lincoln,277 Pinnacle Arena Drive, ,-96.71317,40.815871,,
440,"Lindenwold, NJ",LDW,NJ,Somerdale,Station Avenue & White Horse Road West, ,-75.000759,39.83383,,
469,"Little Rock, AR",LRK,AR,Little Rock,1400 West Markham Street,Union Station,-92.286785,34.750298,,
928,"Livermore, CA",VAS,CA,Livermore,575 South Vasco Road, ,-121.718346,37.696986,,
459,"Lodi, CA",LOD,CA,Lodi,24 South Sacramento Street, ,-121.271887,38.133201,,
466,"Lompoc-Surf, CA",LPS,CA,Surf,Ocean Ave and Park Rd,Surf,-120.605001,34.682704,,
485,"Longview, TX",LVW,TX,Longview,905 Pacific Avenue, ,-94.728322,32.494032,,
439,"Lordsburg, NM",LDB,NM,Lordsburg,Center Street and East Motel Drive, ,-108.707025,32.35007,,
462,"Lorton, VA",LOR,VA,Lorton,8006 Lorton Road,Washington,-77.220942,38.708143,,
431,"Los Angeles, CA",LAX,CA,Los Angeles,800 North Alameda Street,Union Station,-118.236778,34.056177,,
489,"Lynchburg, VA",LYH,VA,Lynchburg,825 Kemper Street, ,-79.156934,37.406439,,
490,"Macomb, IL",MAC,IL,Macomb,120 East Calhoun Street, ,-90.67094,40.461212,,
506,"Madera, CA",MDR,CA,Madera,18770 Road 26, ,-120.07498,37.022471,,
507,"Madison, CT",MDS,CT,Madison,79 Bradley Road, ,-72.59704,41.283527,,
494,"Malta, MT",MAL,MT,Malta,51 South 1st Street East, ,-107.872242,48.360477,,
565,"Malvern, AR",MVN,AR,Malvern,200 East First Street, ,-92.814018,34.365484,,
559,"Manassas, VA",MSS,VA,Manassas,9431 West Street, ,-77.472577,38.750084,,
551,"Maricopa, AZ",MRC,AZ,Maricopa,44605 West Mercado Street,Phoenix,-112.047592,33.056191,,
530,"Marks, MS",MKS,MS,Marks,285 Cherry St, ,-90.272342,34.258227,,
519,"Marshall, TX",MHL,TX,Marshall,800 North Washington Street, ,-94.366995,32.551549,,
564,"Martinez, CA",MTZ,CA,Martinez,601 Marina Vista Avenue, ,-122.138784,38.018921,,
550,"Martinsburg, WV",MRB,WV,Martinsburg,229 East Martin Street, ,-77.961014,39.458661,,
495,"Mattoon, IL",MAT,IL,Mattoon,1718 Broadway Avenue, ,-88.376045,39.48273,,
496,"Maysville, KY",MAY,KY,Maysville,West Front Street & Rosemary Clooney Street, ,-83.771074,38.652148,,
498,"McComb, MS",MCB,MS,McComb,114 North Railroad Avenue, ,-90.451334,31.244467,,
501,"McCook, NE",MCK,NE,McCook,101 Norris Avenue, ,-100.625792,40.197634,,
500,"McGregor, TX",MCG,TX,McGregor,1 Amtrak Boulevard, ,-97.404756,31.443352,,
512,"Memphis, TN",MEM,TN,Memphis,545 South Main Street, ,-90.059109,35.132458,,
508,"Mendota, IL",MDT,IL,Mendota,783 Main Street, ,-89.11792,41.549584,,
499,"Merced, CA",MCD,CA,Merced,324 West 24th Street, ,-120.476805,37.307183,,
504,"Meriden, CT",MDN,CT,Meriden,60 State Street, ,-72.800678,41.539385,,
511,"Meridian, MS",MEI,MS,Meridian,1901 Front Street,Union Station,-88.696568,32.364166,,
513,"Metropark, NJ",MET,NJ,Iselin,100 Middlesex-Essex Turnpike,iselin,-74.329583,40.568056,,
521,"Miami, FL",MIA,FL,Miami,8303 NW 37th Avenue, ,-80.257759,25.849554,,
497,"Middlebury, VT",MBY,VT,Middlebury,30 Middle Seymour Street , ,-73.169775,44.017425,,
522,"Middletown, PA",MID,PA,Middletown,270 West Emaus Street, ,-76.736482,40.195658,,
527,"Milwaukee Airport-Trains, WI",MKA,WI,Milwaukee,5601 South 6th Street,"General Mitchell,Mitchell",-87.924359,42.940583,,
529,"Milwaukee-Downtown, WI",MKE,WI,Milwaukee,433 West St. Paul Avenue, ,-87.917104,43.034518,,
524,"Mineola, TX",MIN,TX,Mineola,115 East Front Street, ,-95.4891,32.662049,,
543,"Minot, ND",MOT,ND,Minot,400 1st Avenue S.W., ,-101.298557,48.236083,,
539,"Modesto, CA",MOD,CA,Modesto,1700 Held Drive, ,-120.912913,37.668951,,
534,"Montgomery, WV",MNG,WV,Montgomery,Third Avenue and Washington Street, ,-81.32403,38.180743,,
547,"Montpelier-Berlin, VT",MPR,VT,Montpelier,297 Junction Road,Berlin,-72.606394,44.255749,,
563,"Montreal, QC",MTR,QC,Montreal,895 rue de la Gauchetiere ouest,"Central,Centrale,Gare,Quebec",-73.565767,45.500169,,
545,"Moorpark, CA",MPK,CA,Moorpark,300 High Street, ,-118.878059,34.28476,,
526,"Mount Joy, PA",MJY,PA,Mount Joy,25 South Market Street, ,-76.503443,40.109165,,
562,"Mount Pleasant, IA",MTP,IA,Mount Pleasant,418 North Adams Street, ,-91.550772,40.971179,,
566,"Mount Vernon, WA",MVW,WA,Mount Vernon,105 East Kincaid Street, ,-122.334738,48.41847,,
571,"Mystic, CT",MYS,CT,Mystic,2 Roosevelt Avenue, ,-71.963093,41.350934,,
600,"Naperville, IL",NPV,IL,Naperville,105 E. Fourth Ave., ,-88.145497,41.779514,,
583,"Needles, CA",NDL,CA,Needles,950 Front Street, ,-114.606188,34.840616,,
576,"New Brunswick, NJ",NBK,NJ,New Brunswick,French and Albany Streets, ,-74.446265,40.496522,,
579,"New Buffalo, MI",NBU,MI,New Buffalo,226 North Whittaker Street, ,-86.745782,41.796656,,
581,"New Carrollton, MD",NCR,MD,New Carrollton,4300 Garden City Drive, ,-76.871494,38.948098,,
591,"New Haven, CT",NHV,CT,New Haven,50 Union Avenue,Union Station,-72.92667,41.297714,,
867,"New Haven, CT",STS,CT,New Haven,259 State Street, ,-72.922086,41.305253,,
592,"New Iberia, LA",NIB,LA,New Iberia,402 West Washington Street, ,-91.823809,30.008415,,
593,"New London, CT",NLC,CT,New London,27 Water Street,Union Station,-72.093225,41.354267,,
595,"New Orleans, LA",NOL,LA,New Orleans,1001 Loyola Avenue,Union Passenger Depot,-90.078291,29.946085,,
603,"New Rochelle, NY",NRO,NY,New Rochelle,1 Railroad Plaza, ,-73.784329,40.911451,,
609,"New York State Fair, NY",NYF,NY,Syracuse,581 State Fair Boulevard, ,-76.229473,43.071924,,
610,"New York, NY",NYP,NY,New York,351 West 31st Street,"nyc,Penn Station,Moynihan Train Hall,new york city,newyork",-73.996327,40.751038,,
602,"Newark, DE",NRK,DE,Newark,110 Station Way, ,-75.753513,39.669686,,
247,"Newark, NJ",EWR,NJ,Newark,3 Brewster Road,"Liberty International,Liberty Airport,Liberty Intl",-74.18229,40.696618,,
607,"Newark, NJ",NWK,NJ,Newark,1 Raymond Plaza West,Penn Station,-74.16475,40.734706,,
577,"Newbern-Dyersburg, TN",NBN,TN,Newbern,108 Jefferson St,Dyersburg,-89.262264,36.112711,,
598,"Newport News, VA",NPN,VA,Newport News,500B Bland Blvd, ,-76.517023,37.122325,,
584,"Newton, KS",NEW,KS,Newton,414 North Main Street, ,-97.344886,38.046976,,
587,"Niagara Falls, NY",NFL,NY,Niagara Falls,825 Depot Avenue West, ,-79.055276,43.109908,,
588,"Niagara Falls, ON",NFS,ON,Niagara Falls,4267 Bridge Street, ,-79.063291,43.108736,,
594,"Niles, MI",NLS,MI,Niles,598 Dey Street, ,-86.252372,41.837412,,
586,"Norfolk, VA",NFK,VA,Norfolk,280 Park Avenue, ,-76.276195,36.843509,,
596,"Norman, OK",NOR,OK,Norman,200 South Jones Avenue, ,-97.443013,35.219963,,
604,"North Carolina State Fair, NC",NSF,NC,Raleigh,1025 Blue Ridge Road,"raleigh,fair,state fair,nc state fair",-78.706292,35.794203,,
663,"North Philadelphia, PA",PHN,PA,Philadelphia,2900 North Broad Street,Philadelphia,-75.155114,39.99678,,
590,"Northampton, MA",NHT,MA,Northampton,170 Pleasant Street, ,-72.626379,42.318858,,
601,"Northridge, CA",NRG,CA,Los Angeles,8775 Wilbur Ave, ,-118.545417,34.230659,,
611,"Oakland, CA",OAC,CA,Oakland,700 73rd Avenue, ,-122.198147,37.752499,,
621,"Oakland, CA",OKJ,CA,Oakland,245 Second Street, ,-122.271667,37.793866,,
622,"Oakville, ON",OKL,ON,Oakville,200 Cross Avenue, ,-79.682392,43.455394,,
636,"Oceanside, CA",OSD,CA,Oceanside,235 South Tremont Street, ,-117.37943,33.192515,,
620,"Okeechobee, FL",OKE,FL,Okeechobee,801 North Parrott Avenue, ,-80.830812,27.251867,,
619,"Oklahoma City, OK",OKC,OK,Oklahoma City,100 South E.K. Gaylord Boulevard, ,-97.512749,35.46549,,
629,"Old Orchard Beach, ME",ORB,ME,Old Orchard Beach,11 First Street, ,-70.376225,43.514326,,
634,"Old Saybrook, CT",OSB,CT,Old Saybrook,455 Boston Post Road, ,-72.376818,41.30039,,
625,"Olympia-Lacey, WA",OLW,WA,Lacey,6600 Yelm Highway SE,Lacey,-122.794059,46.991273,,
626,"Omaha, NE",OMA,NE,Omaha,1003 South 9th Street, ,-95.927201,41.249697,,
627,"Ontario, CA",ONA,CA,Ontario,198 East Emporia Street, ,-117.649569,34.061672,,
630,"Oregon City, OR",ORC,OR,Oregon City,1757 Washington Street, ,-122.595925,45.366146,,
631,"Orlando, FL",ORL,FL,Orlando,1400 Sligh Boulevard,Disney,-81.381516,28.525926,,
635,"Osceola, IA",OSC,IA,Osceola,Main & East Clay Streets, ,-93.764894,41.037116,,
640,"Ottumwa, IA",OTM,IA,Ottumwa,210 West Main Street, ,-92.414929,41.018815,,
643,"Oxnard, CA",OXN,CA,Oxnard,201 East Fourth Street, ,-119.175978,34.199241,,
645,"Palatka, FL",PAK,FL,Palatka,220 North 11th Street, ,-81.640471,29.649734,,
693,"Palm Springs, CA",PSN,CA,Palm Springs,North Indian Canyon Drive and Palm Springs Station Road, ,-116.547913,33.897491,,
646,"Paoli, PA",PAO,PA,Paoli,13 Lancaster Avenue, ,-75.48376,40.042754,,
647,"Parkesburg, PA",PAR,PA,Parkesburg,501 Maple Street, ,-75.922123,39.95918,,
691,"Pasco, WA",PSC,WA,Pasco,535 North 1st Avenue,Walla Walla,-119.087729,46.237012,,
685,"Paso Robles, CA",PRB,CA,Paso Robles,800 Pine Street, ,-120.68786,35.622683,,
710,"Pauls Valley, OK",PVL,OK,Pauls Valley,South Santa Fe Street and East Paul Avenue, ,-97.21846,34.741735,,
677,"Pennsauken, NJ",PNK,NJ,Pennsauken,215 Derousse Avenue, ,-75.062022,39.978052,,
698,"Petersburg, VA",PTB,VA,Petersburg,3516 South Street, ,-77.428794,37.241627,,
662,"Philadelphia, PA",PHL,PA,Philadelphia,2955 Market Street,"30th,Gray,Grey",-75.181041,39.955615,,
665,"Picayune, MS",PIC,MS,Picayune,200 Highway 11 South, ,-89.68026,30.524606,,
666,"Pinehurst, NC",PIH,NC,Pinehurst,100 Beulah Hill Road South, ,-79.469659,35.188281,,
659,"Pittsburgh, PA",PGH,PA,Pittsburgh,1100 Liberty Avenue,Union Station,-79.992307,40.444738,,
667,"Pittsfield, MA",PIT,MA,Pittsfield,1 Columbus Avenue, ,-73.2538,42.451558,,
673,"Plano, IL",PLO,IL,Plano,101 West Main Street, ,-88.538272,41.662384,,
671,"Plattsburgh, NY",PLB,NY,Plattsburgh,Bridge and Dock Streets, ,-73.446284,44.696728,,
675,"Pleasanton, CA",PLS,CA,Pleasanton,4950 Pleasanton Avenue,dublin,-121.882639,37.658152,,
683,"Pomona, CA",POS,CA,Pomona,100 West Commercial Street, ,-117.750621,34.059224,,
681,"Pontiac, IL",PON,IL,Pontiac,711 West Water Street, ,-88.637198,40.878687,,
678,"Pontiac, MI",PNT,MI,Pontiac,51000 Woodward Avenue, ,-83.292325,42.632771,,
649,"Poplar Bluff, MO",PBF,MO,Poplar Bluff,400 South Main Street, ,-90.393341,36.753995,,
680,"Port Henry, NY",POH,NY,Port Henry,20 Park Place, ,-73.458753,44.042297,,
701,"Port Huron, MI",PTH,MI,Port Huron,2223 16th Street, ,-82.443805,42.960419,,
689,"Port Kent, NY",PRK,NY,Port Kent,NY 373 and Lake Street, ,-73.403536,44.524079,,
679,"Portage, WI",POG,WI,Portage,400 West Oneida Street, ,-89.467627,43.547079,,
682,"Portland, ME",POR,ME,Portland,100 Thompson's Point Road, ,-70.291258,43.654097,,
656,"Portland, OR",PDX,OR,Portland,800 NW Sixth Avenue,Union Station,-122.676806,45.528724,,
684,"Poughkeepsie, NY",POU,NY,Poughkeepsie,41 Main Street, ,-73.93749,41.707056,,
686,"Prince, WV",PRC,WV,Prince,5034 Stanaford Road, ,-81.060694,37.856594,,
669,"Princeton Junction, NJ",PJC,NJ,Princeton Junction,2 Wallace Circle, ,-74.623976,40.31585,,
651,"Princeton, IL",PCT,IL,Princeton,107 Bicentennial Drive, ,-89.466815,41.385191,,
708,"Providence, RI",PVD,RI,Providence,100 Gaspee Street, ,-71.413478,41.82949,,
690,"Provo, UT",PRO,UT,Provo,300 West 600 South, ,-111.664001,40.225957,,
707,"Purcell, OK",PUR,OK,Purcell,East Main Street and North Santa Fe Avenue, ,-97.357416,35.012033,,
713,"Quantico, VA",QAN,VA,Quantico,550 Railroad Avenue, ,-77.293027,38.521882,,
714,"Quincy, IL",QCY,IL,Quincy,North 30th Street and Wisman Lane, ,-91.368525,39.957063,,
728,"Raleigh, NC",RGH,NC,Raleigh,510 West Martin Street,Union Station,-78.647784,35.777209,,
748,"Randolph, VT",RPH,VT,Randolph,South Main and Salisbury Streets, ,-72.665459,43.922398,,
756,"Rantoul, IL",RTL,IL,Rantoul,East Grove Ave and North Kentucky Ave., ,-88.159126,40.310905,,
716,"Raton, NM",RAT,NM,Raton,201 South First Street, ,-104.437886,36.901072,,
725,"Red Wing, MN",RDW,MN,Red Wing,420 Levee Street, ,-92.537066,44.566214,,
720,"Redding, CA",RDD,CA,Redding,1620 Yuba Street,Shasta College,-122.39337,40.583595,,
740,"Reno, NV",RNO,NV,Reno,280 North Center Street, ,-119.812123,39.528521,,
727,"Rensselaer, IN",REN,IN,Rensselaer,776 North Cullen Street, ,-87.155121,40.943281,,
729,"Rhinecliff, NY",RHI,NY,Rhinecliff,455 Rhinecliff Road , ,-73.951278,41.921346,,
730,"Richmond, CA",RIC,CA,Richmond,1700 Nevin Avenue, ,-122.35413,37.936752,,
760,"Richmond, VA",RVM,VA,Richmond,1500 East Main Street,Main Street,-77.429512,37.534209,,
761,"Richmond, VA",RVR,VA,Richmond,7519 Staples Mill Road,Staples Mills Road,-77.496943,37.617693,,
732,"Riverside, CA",RIV,CA,Riverside,4066 Vine Street, ,-117.369988,33.97567,,
739,"Roanoke, VA",RNK,VA,Roanoke,55 Norfolk Avenue SW, ,-79.941795,37.273185,,
743,"Rochester, NY",ROC,NY,Rochester,320 Central Avenue, ,-77.608057,43.163411,,
736,"Rocklin, CA",RLN,CA,Rocklin,Rocklin Rd. and Railroad Ave., ,-121.237299,38.791006,,
735,"Rockville, MD",RKV,MD,Rockville,307 South Stonestreet Avenue, ,-77.145995,39.084547,,
738,"Rocky Mount, NC",RMT,NC,Rocky Mount,101 Coastline Street, ,-77.797855,35.938001,,
745,"Rome, NY",ROM,NY,Rome,6599 Martin Street, ,-75.44996,43.199425,,
752,"Roseville, CA",RSV,CA,Roseville,201 Pacific Street, ,-121.286286,38.750016,,
751,"Rouses Point, NY",RSP,NY,Rouses Point,68 Pratt Street, ,-73.371093,44.99487,,
755,"Route 128, MA",RTE,MA,Westwood,50 University Avenue,"Boston,128",-71.147894,42.210242,,
746,"Royal Oak, MI",ROY,MI,Royal Oak,202 South Sherman Drive, ,-83.14701,42.488439,,
759,"Rugby, ND",RUG,ND,Rugby,201 West Dewey Street, ,-99.997556,48.369846,,
758,"Rutland, VT",RUD,VT,Rutland,25 Evelyn Street, ,-72.981538,43.605756,,
769,"Saco, ME",SAO,ME,Saco,138 Main Street, ,-70.449139,43.496191,,
764,"Sacramento, CA",SAC,CA,Sacramento,401 I Street, ,-121.500704,38.584004,,
812,"Salem, OR",SLM,OR,Salem,500 13th Street SE, ,-123.028331,44.932331,,
831,"Salinas, CA",SNS,CA,Salinas,11 Station Place, ,-121.656745,36.679145,,
767,"Salisbury, NC",SAL,NC,Salisbury,215 Depot Street, ,-80.466323,35.667496,,
808,"Salt Lake City, UT",SLC,UT,Salt Lake City,340 South 600 West, ,-111.908349,40.761661,,
772,"San Antonio, TX",SAS,TX,San Antonio,350 Hoefgen Street, ,-98.478143,29.41935,,
826,"San Bernardino, CA",SNB,CA,San Bernardino,1170 West Third Street, ,-117.310659,34.104112,,
829,"San Clemente Pier, CA",SNP,CA,San Clemente,615 Avenida Victoria, ,-117.619733,33.419645,,
624,"San Diego, CA",OLT,CA,San Diego,4005 Taylor Street, ,-117.200073,32.755266,,
768,"San Diego, CA",SAN,CA,San Diego,1050 Kettner Boulevard, ,-117.169576,32.716169,,
799,"San Jose, CA",SJC,CA,San Jose,65 Cahill Street,Diridon,-121.902388,37.329933,,
827,"San Juan Capistrano, CA",SNC,CA,San Juan Capistrano,26701 Verdugo Street, ,-117.663813,33.501318,,
813,"San Luis Obispo, CA",SLO,CA,San Luis Obispo,1011 Railroad Avenue,Cuesta College,-120.654701,35.276434,,
819,"San Marcos, TX",SMC,TX,San Marcos,338 South Guadalupe Street, ,-97.941049,29.876571,,
828,"Sanderson, TX",SND,TX,Sanderson,201 West Downie Street, ,-102.398746,30.139951,,
846,"Sandpoint, ID",SPT,ID,Sandpoint,450 Railroad Depot Rd, ,-116.545583,48.276234,,
806,"Sandusky, OH",SKY,OH,Sandusky,1200 North Depot Street, ,-82.717866,41.440671,,
792,"Sanford, FL",SFA,FL,Sanford,600 South Persimmon Avenue,"Orlando,Disney",-81.291274,28.808544,,
825,"Santa Ana, CA",SNA,CA,Santa Ana,1000 East Santa Ana Boulevard, ,-117.856607,33.751629,,
776,"Santa Barbara, CA",SBA,CA,Santa Barbara,209 State Street, ,-119.692785,34.413718,,
283,"Santa Clara, CA",GAC,CA,Santa Clara,5099 Stars and Stripes Drive, ,-121.967003,37.406778,,
782,"Santa Clara, CA",SCC,CA,Santa Clara,1001 Railroad Avenue, ,-121.936576,37.353219,,
771,"Saratoga Springs, NY",SAR,NY,Saratoga Springs,26 Station Lane, ,-73.810027,43.08281,,
774,"Savannah, GA",SAV,GA,Savannah,2611 Seaboard Coastline Drive, ,-81.148264,32.083412,,
788,"Schenectady, NY",SDY,NY,Schenectady,332 Erie Boulevard, ,-73.942892,42.814724,,
784,"Schriever, LA",SCH,LA,Schriever,145 Burlington Court, ,-90.815246,29.746678,,
573,"Seaside-Marina, CA",MYU,CA,Seaside-Marina,5101 4th Avenue, ,-121.801379,36.653516,,
789,"Seattle, WA",SEA,WA,Seattle,303 South Jackson Street,King Street,-122.330161,47.598445,,
777,"Sebring, FL",SBG,FL,Sebring,601 East Center Avenue, ,-81.434202,27.496632,,
790,"Sedalia, MO",SED,MO,Sedalia,Pacific Street and North Osage Avenue, ,-93.228706,38.711604,,
856,"Selma-Smithfield, NC",SSM,NC,Selma,500 East Railroad Street,Smithfield,-78.280099,35.532786,,
780,"Shelby, MT",SBY,MT,Shelby,230 West Central Avenue, ,-111.856649,48.506748,,
798,"Simi Valley, CA",SIM,CA,Simi Valley,5050 Los Angeles Avenue, ,-118.695163,34.270204,,
787,"Slidell, LA",SDL,LA,Slidell,1827 Front Street, ,-89.782565,30.278372,,
834,"Solana Beach, CA",SOL,CA,Solana Beach,105 North Cedros Avenue, ,-117.271135,32.992937,,
833,"South Bend, IN",SOB,IN,South Bend,2702 West Washington Street, ,-86.287345,41.67836,,
844,"South Shore-South Portsmouth, KY",SPM,KY,South Shore,Depot Drive & US 23,"Portsmouth,South Portsmouth",-82.963751,38.721281,,
835,"Southern Pines, NC",SOP,NC,Southern Pines,235 Northwest Broad Street, ,-79.390303,35.175069,,
838,"Spartanburg, SC",SPB,SC,Spartanburg,290 Magnolia Street, ,-81.936917,34.953736,,
842,"Spokane, WA",SPK,WA,Spokane,221 West 1st Avenue, ,-117.415455,47.65672,,
841,"Springfield, IL",SPI,IL,Springfield,100 North Third Street, ,-89.651384,39.802323,,
840,"Springfield, MA",SPG,MA,Springfield,55 Frank B. Murray Street, ,-72.592905,42.105987,,
763,"St. Albans, VT",SAB,VT,St Albans,40 Federal Street,"St Albans,Saint Albans,Albans",-73.086191,44.81236,,
781,"St. Catharines, ON",SCA,ON,St. Catharines,5 Great Western St.,"St Catharines,Saint Catharines,Sainte Catharines,Catharines",-79.256017,43.147829,,
783,"St. Cloud, MN",SCD,MN,St. Cloud,555 East Saint Germain Street,"St Cloud,Saint Cloud,Cloud",-94.149093,45.567748,,
800,"St. Joseph-Benton Harbor, MI",SJM,MI,St. Joseph,410 1/2 Vine Street,"St Joseph,Saint Joseph,Joseph,Benton Harbor",-86.484484,42.10908,,
862,"St. Louis, MO",STL,MO,St. Louis,430 South 15th Street,"St Louis,Saint Louis,Louis",-90.203973,38.624195,,
558,"St. Paul-Minneapolis, MN",MSP,MN,St. Paul,240 Kellogg Boulevard East,"Minneapolis,St Paul,Saint Paul,Union Depot",-93.085355,44.947661,,
863,"Stamford, CT",STM,CT,Stamford,Washington Blvd and South State Street, ,-73.54216,41.04713,,
864,"Stanley, ND",STN,ND,Stanley,Main Street & Railroad Avenue, ,-102.389379,48.319813,,
868,"Stanwood, WA",STW,WA,Stanwood,27111 Florence Way, ,-122.349935,48.242638,,
843,"Staples, MN",SPL,MN,Staples,First Avenue N.E. and Fourth Street N.E., ,-94.795331,46.354601,,
858,"Staunton, VA",STA,VA,Staunton,1 Middlebrook Avenue, ,-79.071776,38.147639,,
815,"St-Lambert, QC",SLQ,QC,St-Lambert,329 avenue St-Denis,"St Lambert,St. Lambert,Saint Lambert,Lambert,Quebec",-73.507287,45.498896,,
803,"Stockton, CA",SKN,CA,Stockton,735 South San Joaquin Street, ,-121.285632,37.945468,,
804,"Stockton, CA",SKT,CA,Stockton,949 East Channel St., ,-121.279,37.957038,,
875,"Sturtevant, WI",SVT,WI,Sturtevant,9900 East Exploration Court, ,-87.9063,42.718292,,
869,"Suisun-Fairfield, CA",SUI,CA,Suisun City,177 Main Street,Fairfield,-122.041099,38.243401,,
824,"Summit, IL",SMT,IL,Summit,Archer Avenue and South Center Avenue, ,-87.809742,41.794912,,
882,"Syracuse, NY",SYR,NY,Syracuse,1 Walsh Circle, ,-76.169244,43.076548,,
884,"Tacoma, WA",TAC,WA,Tacoma,422 East 25th Street, ,-122.428099,47.239803,,
897,"Tampa, FL",TPA,FL,Tampa,601 North Nebraska Avenue ,Union Station,-82.450777,27.952492,,
885,"Taylor, TX",TAY,TX,Taylor,118 East First Street, ,-97.407763,30.567667,,
898,"Temple, TX",TPL,TX,Temple,315 West Avenue B, ,-97.345792,31.095883,,
917,"Texarkana, AR",TXA,AR,Texarkana,100 East Front Street, ,-94.043082,33.420067,,
893,"Thurmond, WV",THN,WV,Thurmond,Hwy 25 & Hwy 2, ,-81.078754,37.956986,,
277,"Ticonderoga, NY",FTC,NY,Ticonderoga,NYS Hwy 74 and Sandy Redoubt, ,-73.389681,43.853788,,
886,"Toccoa, GA",TCA,GA,Toccoa,47 North Alexander Street, ,-83.331542,34.578456,,
895,"Toledo, OH",TOL,OH,Toledo,415 Emerald Avenue, ,-83.541721,41.638345,,
894,"Tomah, WI",TOH,WI,Tomah,North Superior Avenue and Washington Street, ,-90.505331,43.986007,,
896,"Topeka, KS",TOP,KS,Topeka,500 SE Holliday Place, ,-95.664916,39.051415,,
916,"Toronto, ON",TWO,ON,Toronto,65 Front Street West,"Ontario,Union",-79.380762,43.645427,,
901,"Tracy, CA",TRC,CA,Tracy,4800 Tracy Boulevard, ,-121.43397,37.696211,,
902,"Trenton, NJ",TRE,NJ,Trenton,72 South Clinton Avenue, ,-74.75444,40.219011,,
904,"Trinidad, CO",TRI,CO,Trinidad,110 West Pine Street, ,-104.507981,37.172688,,
906,"Troy, MI",TRM,MI,Troy,1201 Doyle Drive, ,-83.191026,42.542555,,
908,"Truckee, CA",TRU,CA,Truckee,10065 Donner Pass Road, ,-120.185387,39.327616,,
913,"Tucson, AZ",TUS,AZ,Tucson,400 North Toole Avenue, ,-110.96677,32.222977,,
912,"Tukwila, WA",TUK,WA,Tukwila,7301 Longacres Way, ,-122.240254,47.461081,,
905,"Turlock-Denair, CA",TRK,CA,Denair,3800 Santa Fe Avenue,Denair,-120.798009,37.527229,,
887,"Tuscaloosa, AL",TCL,AL,Tuscaloosa,2105 Greensboro Avenue, ,-87.560228,33.193165,,
919,"Tyrone, PA",TYR,PA,Tyrone,Pennsylvania Avenue and West 10th Street, ,-78.24047,40.667705,,
920,"Utica, NY",UCA,NY,Utica,321 Main Street, ,-75.223434,43.103892,,
935,"Van Nuys, CA",VNC,CA,Van Nuys,7724 Van Nuys Boulevard, ,-118.448206,34.211294,,
924,"Vancouver, BC",VAC,BC,Vancouver,1150 Station Street,"Pacific Central,British Columbia",-123.098336,49.273757,,
927,"Vancouver, WA",VAN,WA,Vancouver,1301 West 11th Street, ,-122.686544,45.628901,,
930,"Ventura, CA",VEC,CA,Ventura,39 East Harbor Blvd, ,-119.299918,34.276929,,
937,"Victorville, CA",VRV,CA,Victorville,16858 South D Street, ,-117.292956,34.5372,,
959,"Wallingford, CT",WFD,CT,Wallingford,343 North Cherry St.  , ,-72.825221,41.456969,,
984,"Walnut Ridge, AR",WNR,AR,Walnut Ridge,109 Southwest Front Street, ,-90.956766,36.06766,,
943,"Warrensburg, MO",WAR,MO,Warrensburg,100 South Holden Street, ,-93.7409,38.76275,,
940,"Wasco, CA",WAC,CA,Wasco,700 G Street, ,-119.332309,35.594092,,
944,"Washington, DC",WAS,DC,Washington,50 Massachusetts Avenue NE,Union Station,-77.006422,38.896993,,
942,"Washington, MO",WAH,MO,Washington,301 West Front Street, ,-91.012717,38.561466,,
939,"Waterbury-Stowe, VT",WAB,VT,Waterbury,US Highway 2 and Park Row,Stowe,-72.751806,44.335011,,
1003,"Waterloo, IN",WTI,IN,Waterloo,485 West Van Vleek Street, ,-85.024298,41.431816,,
956,"Wells, ME",WEM,ME,Wells,696 Sanford Road, ,-70.612192,43.320836,,
957,"Wenatchee, WA",WEN,WA,Wenatchee,1 Kittitas Street, ,-120.306552,47.421556,,
962,"West Glacier, MT",WGL,MT,West Glacier,12544 US Highway 2 East,glacier,-113.979164,48.496218,,
989,"West Palm Beach, FL",WPB,FL,West Palm Beach,209 South Tamarind Avenue, ,-80.062184,26.712554,,
996,"Westbrook, CT",WSB,CT,Westbrook,101 Norris Avenue, ,-72.448,41.288787,,
975,"Westerly, RI",WLY,RI,Westerly,14 Railroad Avenue, ,-71.82978,41.381081,,
998,"Westport, NY",WSP,NY,Westport,6705 Main Street, ,-73.451773,44.187288,,
994,"White River Junction, VT",WRJ,VT,White River Junction,102 Railroad Row, ,-72.317272,43.647785,,
999,"White Sulphur Springs, WV",WSS,WV,White Sulphur Springs,315 West Main Street, ,-80.304004,37.786443,,
960,"Whitefish, MT",WFH,MT,Whitefish,500 Depot Street, ,-114.335575,48.413474,,
963,"Whitehall, NY",WHL,NY,Whitehall,154 Main Street, ,-73.403207,43.554694,,
946,"Williamsburg, VA",WBG,VA,Williamsburg,468 North Boundary Street, ,-76.708564,37.276414,,
1004,"Williston, ND",WTN,ND,Williston,1 South Main Street, ,-103.620926,48.143,,
966,"Wilmington, DE",WIL,DE,Wilmington,100 South French Street, ,-75.551095,39.737263,,
973,"Wilson, NC",WLN,NC,Wilson,401 East Nash Street,Goldsboro,-77.908029,35.723135,,
980,"Windsor Locks, CT",WNL,CT,Windsor Locks,South Main Street at Stanton Road, ,-72.626101,41.913956,,
979,"Windsor, CT",WND,CT,Windsor,41 Central Street, ,-72.642253,41.852013,,
981,"Windsor-Mt. Ascutney, VT",WNM,VT,Windsor,26 Depot Avenue,"Mt. Ascutney,Mt Ascutney,mount ascutney",-72.384985,43.479908,,
982,"Winnemucca, NV",WNN,NV,Winnemucca,209 Railroad Street, ,-117.73221,40.969044,,
967,"Winona, MN",WIN,MN,Winona,65 East Mark Street, ,-91.640073,44.044404,,
974,"Winslow, AZ",WLO,AZ,Winslow,303 East Second Street (Route 66), ,-110.694981,35.021666,,
1002,"Winter Haven, FL",WTH,FL,Winter Haven,1800 7th Street SW, ,-81.734878,28.002146,,
991,"Winter Park, CO",WPR,CO,Winter Park,85 Parsenn Road,ski train,-105.763245,39.887584,,
990,"Winter Park, FL",WPK,FL,Winter Park,148 West Morse Boulevard, ,-81.351993,28.597099,,
951,"Wisconsin Dells, WI",WDL,WI,Wisconsin Dells,100 LaCrosse Street, ,-89.777451,43.626509,,
965,"Wishram, WA",WIH,WA,Wishram,1 Railroad Avenue,"Dalles,The Dalles",-120.966142,45.657669,,
987,"Woburn, MA",WOB,MA,Woburn,100 Atlantic Avenue, ,-71.143823,42.517358,,
993,"Wolf Point, MT",WPT,MT,Wolf Point,320 Front Street, ,-105.642736,48.091672,,
950,"Woodbridge, VA",WDB,VA,Woodbridge,1040 Express Way, ,-77.247852,38.658915,,
988,"Worcester, MA",WOR,MA,Worcester,2 Washington Square,Union Station,-71.794812,42.261478,,
1008,"Yazoo City, MS",YAZ,MS,Yazoo City,West Broadway (SR149) & North Water Street, ,-90.41523,32.848477,,
1010,"Yemassee, SC",YEM,SC,Yemassee,15 Wall Street, ,-80.846901,32.688286,,
1011,"Yonkers, NY",YNY,NY,Yonkers,5 Buena Vista Avenue, ,-73.902263,40.935586,,
1020,"Yuma, AZ",YUM,AZ,Yuma,281 Gila Street, ,-114.615571,32.723139,,
